start=new Date('2022-01-21T00:00:00.000Z').valueOf();
sats=[{"PERIOD":"93.274","TIME_SYSTEM":"UTC","SEMIMAJOR_AXIS":"6812.907","COUNTRY_CODE":"US","OBJECT_TYPE":"PAYLOAD","RA_OF_ASC_NODE":"194.9402","REV_AT_EPOCH":"4843","FILE":"3278546","LAUNCH_DATE":"2021-03-14","ARG_OF_PERICENTER":"113.6889","RCS_SIZE":"LARGE","CENTER_NAME":"EARTH","BSTAR":"0.00026947000000","GP_ID":"194264960","MEAN_MOTION_DOT":"0.00012011","MEAN_MOTION":"15.43846331","TLE_LINE1":"1 47890U 21021AG  22020.74900881  .00012011  00000-0  26947-3 0  9993","TLE_LINE2":"2 47890  53.0541 194.9402 0002022 113.6889 246.4329 15.43846331 48436","CLASSIFICATION_TYPE":"U","MEAN_ELEMENT_THEORY":"SGP4","INCLINATION":"53.0541","SITE":"AFETR","PERIAPSIS":"433.394","NORAD_CAT_ID":"47890","ECCENTRICITY":"0.00020220","DECAY_DATE":null,"EPOCH":"2022-01-20T17:58:34.361184","APOAPSIS":"436.150","OBJECT_NAME":"STARLINK-2350","EPHEMERIS_TYPE":"0","MEAN_ANOMALY":"246.4329","REF_FRAME":"TEME","OBJECT_ID":"2021-021AG","MEAN_MOTION_DDOT":"0.0000000000000","ELEMENT_SET_NO":"999"},{"APOAPSIS":"548.662","NORAD_CAT_ID":"47891","ECCENTRICITY":"0.00021070","DECAY_DATE":null,"EPOCH":"2022-01-20T19:32:56.807232","OBJECT_ID":"2021-021AH","MEAN_MOTION_DDOT":"0.0000000000000","ELEMENT_SET_NO":"999","MEAN_ANOMALY":"282.4210","REF_FRAME":"TEME","OBJECT_NAME":"STARLINK-2351","EPHEMERIS_TYPE":"0","LAUNCH_DATE":"2021-03-14","ARG_OF_PERICENTER":"77.7015","RCS_SIZE":"LARGE","CENTER_NAME":"EARTH","RA_OF_ASC_NODE":"215.2172","OBJECT_TYPE":"PAYLOAD","REV_AT_EPOCH":"4815","FILE":"3278609","SEMIMAJOR_AXIS":"6925.338","COUNTRY_CODE":"US","PERIOD":"95.592","TIME_SYSTEM":"UTC","TLE_LINE2":"2 47891  53.0549 215.2172 0002107  77.7015 282.4210 15.06403355 48153","CLASSIFICATION_TYPE":"U","MEAN_ELEMENT_THEORY":"SGP4","INCLINATION":"53.0549","SITE":"AFETR","PERIAPSIS":"545.744","MEAN_MOTION":"15.06403355","TLE_LINE1":"1 47891U 21021AH  22020.81454638  .00001116  00000-0  93791-4 0  9992","MEAN_MOTION_DOT":"0.00001116","GP_ID":"194266035","BSTAR":"0.00009379100000"},{"APOAPSIS":"548.857","NORAD_CAT_ID":"47892","ECCENTRICITY":"0.00023140","DECAY_DATE":null,"EPOCH":"2022-01-20T18:23:59.692704","OBJECT_ID":"2021-021AJ","MEAN_MOTION_DDOT":"0.0000000000000","ELEMENT_SET_NO":"999","MEAN_ANOMALY":"281.7474","REF_FRAME":"TEME","OBJECT_NAME":"STARLINK-2352","EPHEMERIS_TYPE":"0","LAUNCH_DATE":"2021-03-14","RCS_SIZE":"LARGE","ARG_OF_PERICENTER":"78.3774","CENTER_NAME":"EARTH","OBJECT_TYPE":"PAYLOAD","RA_OF_ASC_NODE":"215.4412","REV_AT_EPOCH":"4814","FILE":"3278546","SEMIMAJOR_AXIS":"6925.389","COUNTRY_CODE":"US","PERIOD":"95.593","TIME_SYSTEM":"UTC","TLE_LINE2":"2 47892  53.0552 215.4412 0002314  78.3774 281.7474 15.06386646 48142","MEAN_ELEMENT_THEORY":"SGP4","CLASSIFICATION_TYPE":"U","INCLINATION":"53.0552","SITE":"AFETR","PERIAPSIS":"545.652","MEAN_MOTION":"15.06386646","TLE_LINE1":"1 47892U 21021AJ  22020.76666311  .00001441  00000-0  11570-3 0  9995","MEAN_MOTION_DOT":"0.00001441","BSTAR":"0.00011570000000","GP_ID":"194264950"},{"APOAPSIS":"548.785","ECCENTRICITY":"0.00022950","NORAD_CAT_ID":"47894","EPOCH":"2022-01-20T00:59:39.656544","DECAY_DATE":null,"OBJECT_NAME":"STARLINK-2354","EPHEMERIS_TYPE":"0","MEAN_MOTION_DDOT":"0.0000000000000","OBJECT_ID":"2021-021AL","ELEMENT_SET_NO":"999","REF_FRAME":"TEME","MEAN_ANOMALY":"281.7318","SEMIMAJOR_AXIS":"6925.331","COUNTRY_CODE":"US","TIME_SYSTEM":"UTC","PERIOD":"95.592","ARG_OF_PERICENTER":"78.3928","RCS_SIZE":"LARGE","LAUNCH_DATE":"2021-03-14","CENTER_NAME":"EARTH","RA_OF_ASC_NODE":"208.6982","OBJECT_TYPE":"PAYLOAD","FILE":"3278533","REV_AT_EPOCH":"4860","MEAN_MOTION_DOT":"0.00002431","BSTAR":"0.00018201000000","GP_ID":"194261093","TLE_LINE2":"2 47894  53.0527 208.6982 0002295  78.3928 281.7318 15.06405740 48606","CLASSIFICATION_TYPE":"U","MEAN_ELEMENT_THEORY":"SGP4","PERIAPSIS":"545.607","INCLINATION":"53.0527","SITE":"AFETR","MEAN_MOTION":"15.06405740","TLE_LINE1":"1 47894U 21021AL  22020.04143121  .00002431  00000-0  18201-3 0  9995"},{"OBJECT_TYPE":"PAYLOAD","RA_OF_ASC_NODE":"206.5669","REV_AT_EPOCH":"4870","FILE":"3278533","LAUNCH_DATE":"2021-03-14","RCS_SIZE":"LARGE","ARG_OF_PERICENTER":"78.5824","CENTER_NAME":"EARTH","PERIOD":"95.592","TIME_SYSTEM":"UTC","SEMIMAJOR_AXIS":"6925.355","COUNTRY_CODE":"US","MEAN_MOTION":"15.06397793","TLE_LINE1":"1 47895U 21021AM  22020.51692481  .00002246  00000-0  16966-3 0  9996","CLASSIFICATION_TYPE":"U","TLE_LINE2":"2 47895  53.0545 206.5669 0002498  78.5824 281.5446 15.06397793 48707","MEAN_ELEMENT_THEORY":"SGP4","INCLINATION":"53.0545","SITE":"AFETR","PERIAPSIS":"545.490","BSTAR":"0.00016966000000","GP_ID":"194261345","MEAN_MOTION_DOT":"0.00002246","NORAD_CAT_ID":"47895","ECCENTRICITY":"0.00024980","DECAY_DATE":null,"EPOCH":"2022-01-20T12:24:22.303584","APOAPSIS":"548.950","MEAN_ANOMALY":"281.5446","REF_FRAME":"TEME","OBJECT_ID":"2021-021AM","MEAN_MOTION_DDOT":"0.0000000000000","ELEMENT_SET_NO":"999","OBJECT_NAME":"STARLINK-2355","EPHEMERIS_TYPE":"0"},{"MEAN_MOTION_DDOT":"0.0000000000000","OBJECT_ID":"2021-021AN","ELEMENT_SET_NO":"999","REF_FRAME":"TEME","MEAN_ANOMALY":"286.0660","OBJECT_NAME":"STARLINK-2356","EPHEMERIS_TYPE":"0","APOAPSIS":"548.753","ECCENTRICITY":"0.00021820","NORAD_CAT_ID":"47896","EPOCH":"2022-01-20T18:36:33.906816","DECAY_DATE":null,"TLE_LINE2":"2 47896  53.0585 220.3939 0002182  74.0569 286.0660 15.06390905 48079","MEAN_ELEMENT_THEORY":"SGP4","CLASSIFICATION_TYPE":"U","PERIAPSIS":"545.730","INCLINATION":"53.0585","SITE":"AFETR","MEAN_MOTION":"15.06390905","TLE_LINE1":"1 47896U 21021AN  22020.77539244 -.00000889  00000-0 -40772-4 0  9998","MEAN_MOTION_DOT":"-0.00000889","GP_ID":"194266018","BSTAR":"-0.00004077200000","ARG_OF_PERICENTER":"74.0569","RCS_SIZE":"LARGE","LAUNCH_DATE":"2021-03-14","CENTER_NAME":"EARTH","RA_OF_ASC_NODE":"220.3939","OBJECT_TYPE":"PAYLOAD","FILE":"3278614","REV_AT_EPOCH":"4807","SEMIMAJOR_AXIS":"6925.376","COUNTRY_CODE":"US","TIME_SYSTEM":"UTC","PERIOD":"95.593"},{"APOAPSIS":"548.907","DECAY_DATE":null,"EPOCH":"2022-01-20T18:45:09.639648","NORAD_CAT_ID":"47897","ECCENTRICITY":"0.00024120","ELEMENT_SET_NO":"999","OBJECT_ID":"2021-021AP","MEAN_MOTION_DDOT":"0.0000000000000","MEAN_ANOMALY":"280.0405","REF_FRAME":"TEME","EPHEMERIS_TYPE":"0","OBJECT_NAME":"STARLINK-2357","CENTER_NAME":"EARTH","LAUNCH_DATE":"2021-03-14","RCS_SIZE":"LARGE","ARG_OF_PERICENTER":"80.0856","REV_AT_EPOCH":"4828","FILE":"3278548","RA_OF_ASC_NODE":"205.3799","OBJECT_TYPE":"PAYLOAD","COUNTRY_CODE":"US","SEMIMAJOR_AXIS":"6925.371","PERIOD":"95.593","TIME_SYSTEM":"UTC","SITE":"AFETR","INCLINATION":"53.0513","PERIAPSIS":"545.566","MEAN_ELEMENT_THEORY":"SGP4","TLE_LINE2":"2 47897  53.0513 205.3799 0002412  80.0856 280.0405 15.06392572 48286","CLASSIFICATION_TYPE":"U","TLE_LINE1":"1 47897U 21021AP  22020.78136157 -.00001111  00000-0 -55694-4 0  9994","MEAN_MOTION":"15.06392572","MEAN_MOTION_DOT":"-0.00001111","BSTAR":"-0.00005569400000","GP_ID":"194264965"},{"APOAPSIS":"548.837","DECAY_DATE":null,"EPOCH":"2022-01-20T18:35:55.521888","NORAD_CAT_ID":"47898","ECCENTRICITY":"0.00023290","EPHEMERIS_TYPE":"0","OBJECT_NAME":"STARLINK-2358","ELEMENT_SET_NO":"999","OBJECT_ID":"2021-021AQ","MEAN_MOTION_DDOT":"0.0000000000000","MEAN_ANOMALY":"280.3185","REF_FRAME":"TEME","COUNTRY_CODE":"US","SEMIMAJOR_AXIS":"6925.359","PERIOD":"95.592","TIME_SYSTEM":"UTC","CENTER_NAME":"EARTH","LAUNCH_DATE":"2021-03-14","ARG_OF_PERICENTER":"79.8066","RCS_SIZE":"LARGE","REV_AT_EPOCH":"4828","FILE":"3278548","RA_OF_ASC_NODE":"205.4085","OBJECT_TYPE":"PAYLOAD","MEAN_MOTION_DOT":"0.00002420","BSTAR":"0.00018136000000","GP_ID":"194264963","INCLINATION":"53.0532","SITE":"AFETR","PERIAPSIS":"545.611","TLE_LINE2":"2 47898  53.0532 205.4085 0002329  79.8066 280.3185 15.06396483 48286","CLASSIFICATION_TYPE":"U","MEAN_ELEMENT_THEORY":"SGP4","TLE_LINE1":"1 47898U 21021AQ  22020.77494817  .00002420  00000-0  18136-3 0  9995","MEAN_MOTION":"15.06396483"},{"EPOCH":"2022-01-20T18:31:55.443936","DECAY_DATE":null,"ECCENTRICITY":"0.00023310","NORAD_CAT_ID":"47899","APOAPSIS":"548.850","REF_FRAME":"TEME","MEAN_ANOMALY":"284.6078","ELEMENT_SET_NO":"999","MEAN_MOTION_DDOT":"0.0000000000000","OBJECT_ID":"2021-021AR","EPHEMERIS_TYPE":"0","OBJECT_NAME":"STARLINK-2359","FILE":"3278548","REV_AT_EPOCH":"4843","OBJECT_TYPE":"PAYLOAD","RA_OF_ASC_NODE":"195.4203","CENTER_NAME":"EARTH","RCS_SIZE":"LARGE","ARG_OF_PERICENTER":"75.5169","LAUNCH_DATE":"2021-03-14","TIME_SYSTEM":"UTC","PERIOD":"95.593","COUNTRY_CODE":"US","SEMIMAJOR_AXIS":"6925.370","TLE_LINE1":"1 47899U 21021AR  22020.77216949  .00000259  00000-0  36309-4 0  9995","MEAN_MOTION":"15.06392870","PERIAPSIS":"545.621","INCLINATION":"53.0552","SITE":"AFETR","MEAN_ELEMENT_THEORY":"SGP4","TLE_LINE2":"2 47899  53.0552 195.4203 0002331  75.5169 284.6078 15.06392870 48430","CLASSIFICATION_TYPE":"U","BSTAR":"0.00003630900000","GP_ID":"194264870","MEAN_MOTION_DOT":"0.00000259"},{"APOAPSIS":"549.027","EPOCH":"2022-01-20T19:06:23.697504","DECAY_DATE":null,"ECCENTRICITY":"0.00025780","NORAD_CAT_ID":"47900","EPHEMERIS_TYPE":"0","OBJECT_NAME":"STARLINK-2360","ELEMENT_SET_NO":"999","MEAN_MOTION_DDOT":"0.0000000000000","OBJECT_ID":"2021-021AS","REF_FRAME":"TEME","MEAN_ANOMALY":"284.9268","COUNTRY_CODE":"US","SEMIMAJOR_AXIS":"6925.377","TIME_SYSTEM":"UTC","PERIOD":"95.593","CENTER_NAME":"EARTH","ARG_OF_PERICENTER":"75.2007","RCS_SIZE":"LARGE","LAUNCH_DATE":"2021-03-14","FILE":"3278717","REV_AT_EPOCH":"4828","OBJECT_TYPE":"PAYLOAD","RA_OF_ASC_NODE":"205.3122","MEAN_MOTION_DOT":"-0.00000672","BSTAR":"-0.00002619900000","GP_ID":"194268299","PERIAPSIS":"545.456","SITE":"AFETR","INCLINATION":"53.0538","CLASSIFICATION_TYPE":"U","TLE_LINE2":"2 47900  53.0538 205.3122 0002578  75.2007 284.9268 15.06390859 48281","MEAN_ELEMENT_THEORY":"SGP4","TLE_LINE1":"1 47900U 21021AS  22020.79610761 -.00000672  00000-0 -26199-4 0  9997","MEAN_MOTION":"15.06390859"}];
